NORAD_CAT_ID,OBJECT_NAME,OBJECT_TYPE,EPOCH,MEAN_MOTION,ECCENTRICITY,INCLINATION,RA_OF_ASC_NODE,ARG_OF_PERICENTER,MEAN_ANOMALY,BSTAR,MEAN_MOTION_DOT,MEAN_MOTION_DDOT,TLE_LINE0,TLE_LINE1,TLE_LINE2,SEMIMAJOR_AXIS,PERIOD,APOGEE,PERIGEE,DECAYED
52346.0,STARLINK-3812,PAYLOAD,2022-11-30 19:15:51,15.08841977,0.0003077,53.2152,163.178,44.1289,315.9948,0.00028949,4.322e-05,0.0,0 STARLINK-3812,1 52346U 22045R   22334.80267872  .00004322  00000-0  28949-3 0  9993,2 52346  53.2152 163.1780 0003077  44.1289 315.9948 15.08841977 35390,6917.874,95.437,541.868,537.611,0.0
52346.0,STARLINK-3812,PAYLOAD,2022-12-01 12:45:05,15.08849471,0.0003123,53.2153,159.9069,45.4701,314.6546,0.00030703,4.603e-05,0.0,0 STARLINK-3812,1 52346U 22045R   22335.53131526  .00004603  00000-0  30703-3 0  9993,2 52346  53.2153 159.9069 0003123  45.4701 314.6546 15.08849471 35509,6917.851,95.437,541.877,537.556,0.0
52346.0,STARLINK-3812,PAYLOAD,2022-12-01 19:06:38,15.08850289,0.0003095,53.2157,158.7176,48.0852,312.0404,0.00026306,3.902e-05,0.0,0 STARLINK-3812,1 52346U 22045R   22335.79627347  .00003902  00000-0  26306-3 0  9997,2 52346  53.2157 158.7176 0003095  48.0852 312.0404 15.08850289 35541,6917.849,95.437,541.855,537.573,0.0
52346.0,STARLINK-3812,PAYLOAD,2022-12-01 20:42:01,15.08847324,0.0003031,53.2156,158.4204,45.1979,314.9259,0.00019679,2.845e-05,0.0,0 STARLINK-3812,1 52346U 22045R   22335.86251427  .00002845  00000-0  19679-3 0  9997,2 52346  53.2156 158.4204 0003031  45.1979 314.9259 15.08847324 35553,6917.858,95.437,541.82,537.626,0.0
52346.0,STARLINK-3812,PAYLOAD,2022-12-02 12:35:52,15.08837122,0.0003111,53.2152,155.4462,47.3827,312.7427,-2.0927e-05,-6.22e-06,0.0,0 STARLINK-3812,1 52346U 22045R   22336.52491857 -.00000622  00000-0 -20927-4 0  9996,2 52346  53.2152 155.4462 0003111  47.3827 312.7427 15.08837122 35656,6917.889,95.438,541.906,537.602,0.0
52346.0,STARLINK-3812,PAYLOAD,2022-12-02 18:57:25,15.08838955,0.0003106,53.2153,154.2568,47.6397,312.4858,3.7329e-05,3.05e-06,0.0,0 STARLINK-3812,1 52346U 22045R   22336.78987903  .00000305  00000-0  37329-4 0  9996,2 52346  53.2153 154.2568 0003106  47.6397 312.4858 15.08838955 35694,6917.884,95.438,541.8969999999998,537.6,0.0
52346.0,STARLINK-3812,PAYLOAD,2022-12-03 12:26:39,15.08840853,0.0003145,53.2153,150.9856,49.1522,310.9742,3.3286e-05,2.41e-06,0.0,0 STARLINK-3812,1 52346U 22045R   22337.51851814  .00000241  00000-0  33286-4 0  9996,2 52346  53.2153 150.9856 0003145  49.1522 310.9742 15.08840853 35805,6917.878000000002,95.438,541.918,537.567,0.0
52346.0,STARLINK-3812,PAYLOAD,2022-12-03 20:23:35,15.08843214,0.0003104,53.2163,149.4991,50.1362,309.9902,3.8741e-05,3.28e-06,0.0,0 STARLINK-3812,1 52346U 22045R   22337.84971760  .00000328  00000-0  38741-4 0  9992,2 52346  53.2163 149.4991 0003104  50.1362 309.9902 15.08843214 35853,6917.871,95.437,541.883,537.5880000000002,0.0
52346.0,STARLINK-3812,PAYLOAD,2022-12-04 12:17:26,15.08841498,0.0003122,53.2163,146.525,50.2713,309.8554,0.00013741,1.899e-05,0.0,0 STARLINK-3812,1 52346U 22045R   22338.51211741  .00001899  00000-0  13741-3 0  9999,2 52346  53.2163 146.5250 0003122  50.2713 309.8554 15.08841498 35955,6917.876,95.437,541.901,537.581,0.0
52346.0,STARLINK-3812,PAYLOAD,2022-12-04 20:14:22,15.08846704,0.0003142,53.2165,145.0383,50.8612,309.2659,0.00017312,2.468e-05,0.0,0 STARLINK-3812,1 52346U 22045R   22338.84331399  .00002468  00000-0  17312-3 0  9998,2 52346  53.2165 145.0383 0003142  50.8612 309.2659 15.08846704 36006,6917.86,95.437,541.898,537.5509999999998,0.0
52346.0,STARLINK-3812,PAYLOAD,2022-12-05 04:11:17,15.08850179,0.0003163,53.2168,143.5514,51.362,308.7655,0.00017857,2.555e-05,0.0,0 STARLINK-3812,1 52346U 22045R   22339.17451074  .00002555  00000-0  17857-3 0  9999,2 52346  53.2168 143.5514 0003163  51.3620 308.7655 15.08850179 36052,6917.849,95.437,541.9019999999998,537.526,0.0
52346.0,STARLINK-3812,PAYLOAD,2022-12-05 12:08:13,15.08849563,0.0003201,53.2159,142.0645,52.1172,308.0109,0.00013581,1.874e-05,0.0,0 STARLINK-3812,1 52346U 22045R   22339.50570978  .00001874  00000-0  13581-3 0  9994,2 52346  53.2159 142.0645 0003201  52.1172 308.0109 15.08849563 36103,6917.851,95.437,541.931,537.502,0.0
52346.0,STARLINK-3812,PAYLOAD,2022-12-06 04:02:04,15.08843216,0.0003233,53.2159,139.0909,52.9405,307.1882,1.1308e-05,-1.09e-06,0.0,0 STARLINK-3812,1 52346U 22045R   22340.16811142 -.00000109  00000-0  11308-4 0  9996,2 52346  53.2159 139.0909 0003233  52.9405 307.1882 15.08843216 36202,6917.871,95.437,541.972,537.499,0.0
52346.0,STARLINK-3812,PAYLOAD,2022-12-06 11:59:00,15.08848334,0.0003157,53.2155,137.60399999999998,52.33600000000001,307.7918,8.2084e-05,1.018e-05,0.0,0 STARLINK-3812,1 52346U 22045R   22340.49930745  .00001018  00000-0  82084-4 0  9991,2 52346  53.2155 137.6040 0003157  52.3360 307.7918 15.08848334 36254,6917.855,95.437,541.904,537.536,0.0
52346.0,STARLINK-3812,PAYLOAD,2022-12-06 19:55:56,15.08841744,0.0002964,53.2162,136.1168,52.426,307.7001,-1.1808e-05,-4.77e-06,0.0,0 STARLINK-3812,1 52346U 22045R   22340.83051324 -.00000477  00000-0 -11808-4 0  9992,2 52346  53.2162 136.1168 0002964  52.4260 307.7001 15.08841744 36309,6917.875,95.437,541.7909999999998,537.69,0.0
52346.0,STARLINK-3812,PAYLOAD,2022-12-07 10:14:24,15.08839758,0.0002924,53.2178,133.4412,54.0664,306.0599,5.645399999999999e-06,-1.99e-06,0.0,0 STARLINK-3812,1 52346U 22045R   22341.42667300 -.00000199  00000-0  56454-5 0  9992,2 52346  53.2178 133.4412 0002924  54.0664 306.0599 15.08839758 36395,6917.880999999999,95.438,541.769,537.7230000000002,0.0
52346.0,STARLINK-3812,PAYLOAD,2022-12-07 19:46:42,15.08846999,0.0003094,53.2168,131.6567,53.8145,306.3133,0.00015246,2.139e-05,0.0,0 STARLINK-3812,1 52346U 22045R   22341.82410755  .00002139  00000-0  15246-3 0  9993,2 52346  53.2168 131.6567 0003094  53.8145 306.3133 15.08846999 36454,6917.859,95.437,541.864,537.5840000000002,0.0
52346.0,STARLINK-3812,PAYLOAD,2022-12-08 10:05:10,15.08853556,0.0003176,53.2158,128.9804,54.5452,305.5836,0.00024708,3.647e-05,0.0,0 STARLINK-3812,1 52346U 22045R   22342.42026462  .00003647  00000-0  24708-3 0  9996,2 52346  53.2158 128.9804 0003176  54.5452 305.5836 15.08853556 36544,6917.839,95.437,541.901,537.507,0.0
52346.0,STARLINK-3812,PAYLOAD,2022-12-08 16:26:43,15.08846331,0.000294,53.2162,127.7914,51.2032,308.9223,0.000182,2.61e-05,0.0,0 STARLINK-3812,1 52346U 22045R   22342.68522683  .00002610  00000-0  18200-3 0  9999,2 52346  53.2162 127.7914 0002940  51.2032 308.9223 15.08846331 36588,6917.861,95.437,541.76,537.692,0.0
52346.0,STARLINK-3812,PAYLOAD,2022-12-09 11:31:21,15.08841521,0.0003305,53.2175,124.2284,37.9993,322.1232,8.2149e-05,1.019e-05,0.0,0 STARLINK-3812,1 52346U 22045R   22343.48010636  .00001019  00000-0  82149-4 0  9994,2 52346  53.2175 124.2284 0003305  37.9993 322.1232 15.08841521 36705,6917.876,95.437,542.0269999999998,537.4540000000002,0.0
52346.0,STARLINK-3812,PAYLOAD,2022-12-09 19:28:17,15.0882757,0.0002907,53.2168,122.7375,51.0175,309.1076,-0.00023026,-3.950000000000001e-05,0.0,0 STARLINK-3812,1 52346U 22045R   22343.81131125 -.00003950  00000-0 -23026-3 0  9994,2 52346  53.2168 122.7375 0002907  51.0175 309.1076 15.08827570 36751,6917.918000000002,95.438,541.794,537.7719999999998,0.0
52346.0,STARLINK-3812,PAYLOAD,2022-12-10 14:32:55,15.08828182,0.000241,53.2177,119.1691,43.3038,316.8144,0.00046912,7.183e-05,0.0,0 STARLINK-3812,1 52346U 22045R   22344.60619770  .00007183  00000-0  46912-3 0  9998,2 52346  53.2177 119.1691 0002410  43.3038 316.8144 15.08828182 36877,6917.917,95.438,541.4490000000002,538.114,0.0
52346.0,STARLINK-3812,PAYLOAD,2022-12-10 19:19:04,15.08839602,0.0003005,53.2166,118.2761,52.0804,308.046,0.00015917,2.246e-05,0.0,0 STARLINK-3812,1 52346U 22045R   22344.80491192  .00002246  00000-0  15917-3 0  9992,2 52346  53.2166 118.2761 0003005  52.0804 308.0460 15.08839602 36909,6917.882,95.438,541.825,537.668,0.0
52346.0,STARLINK-3812,PAYLOAD,2022-12-11 12:48:18,15.08839896,0.0002853,53.2161,115.004,52.8622,307.2631,0.00025899,3.836e-05,0.0,0 STARLINK-3812,1 52346U 22045R   22345.53355281  .00003836  00000-0  25899-3 0  9997,2 52346  53.2161 115.0040 0002853  52.8622 307.2631 15.08839896 37014,6917.880999999999,95.438,541.719,537.7719999999998,0.0
52346.0,STARLINK-3812,PAYLOAD,2022-12-11 19:09:51,15.08844093,0.000293,53.2164,113.8156,50.7862,309.339,0.00028094,4.186e-05,0.0,0 STARLINK-3812,1 52346U 22045R   22345.79851151  .00004186  00000-0  28094-3 0  9991,2 52346  53.2164 113.8156 0002930  50.7862 309.3390 15.08844093 37054,6917.868,95.437,541.76,537.706,0.0
52346.0,STARLINK-3812,PAYLOAD,2022-12-12 12:39:05,15.08851945,0.0003103,53.2156,110.5459,48.2421,311.8836,0.00027651,4.116e-05,0.0,0 STARLINK-3812,1 52346U 22045R   22346.52714846  .00004116  00000-0  27651-3 0  9993,2 52346  53.2156 110.5459 0003103  48.2421 311.8836 15.08851945 37160,6917.844,95.437,541.855,537.562,0.0
52346.0,STARLINK-3812,PAYLOAD,2022-12-12 17:25:15,15.08847273,0.0003049,53.216,109.6542,47.8817,312.2434,0.0001503,2.105e-05,0.0,0 STARLINK-3812,1 52346U 22045R   22346.72586913  .00002105  00000-0  15030-3 0  9991,2 52346  53.2160 109.6542 0003049  47.8817 312.2434 15.08847273 37191,6917.858,95.437,541.832,537.614,0.0
52346.0,STARLINK-3812,PAYLOAD,2022-12-13 09:19:06,15.08835852,0.0003015,53.2177,106.6808,56.0694,304.0585,-4.9947e-05,-1.083e-05,0.0,0 STARLINK-3812,1 52346U 22045R   22347.38827320 -.00001083  00000-0 -49947-4 0  9995,2 52346  53.2177 106.6808 0003015  56.0694 304.0585 15.08835852 37296,6917.893,95.438,541.844,537.672,0.0
52346.0,STARLINK-3812,PAYLOAD,2022-12-13 17:16:02,15.08846665,0.0003046,53.2162,105.1917,50.0533,310.0726,0.00012595,1.717e-05,0.0,0 STARLINK-3812,1 52346U 22045R   22347.71946958  .00001717  00000-0  12595-3 0  9991,2 52346  53.2162 105.1917 0003046  50.0533 310.0726 15.08846665 37349,6917.86,95.437,541.832,537.618,0.0
